{"type": "FeatureCollection", "name": "gottingen-co2.geojson", "properties": {"variable": "Carbon dioxide (surface)", "unit": "ppm", "source": "CAMS (Copernicus) via Open-Meteo"}, "features": [{"type": "Feature", "properties": {"variable": "Carbon dioxide (surface)", "value": 431.0, "unit": "ppm", "time": "12:00"}, "geometry": {"type": "Point", "coordinates": [9.0, 51.0]}}, {"type": "Feature", "properties": {"variable": "Carbon dioxide (surface)", "value": 431.0, "unit": "ppm", "time": "12:00"}, "geometry": {"type": "Point", "coordinates": [9.1, 51.0]}}, {"type": "Feature", "properties": {"variable": "Carbon dioxide (surface)", "value": 432.0, "unit": "ppm", "time": "12:00"}, "geometry": {"type": "Point", "coordinates": [9.2, 51.0]}}, {"type": "Feature", "properties": {"variable": "Carbon dioxide (surface)", "value": 432.0, "unit": "ppm", "time": "12:00"}, "geometry": {"type": "Point", "coordinates": [9.3, 51.0]}}, {"type": "Feature", "properties": {"variable": "Carbon dioxide (surface)", "value": 432.0, "unit": "ppm", "time": "12:00"}, "geometry": {"type": "Point", "coordinates": [9.4, 51.0]}}, {"type": "Feature", "properties": {"variable": "Carbon dioxide (surface)", "value": 432.0, "unit": "ppm", "time": "12:00"}, "geometry": {"type": "Point", "coordinates": [9.5, 51.0]}}, {"type": "Feature", "properties": {"variable": "Carbon dioxide (surface)", "value": 432.0, "unit": "ppm", "time": "12:00"}, "geometry": {"type": "Point", "coordinates": [9.6, 51.0]}}, {"type": "Feature", "properties": {"variable": "Carbon dioxide (surface)", "value": 432.0, "unit": "ppm", "time": "12:00"}, "geometry": {"type": "Point", "coordinates": [9.7, 51.0]}}, {"type": "Feature", "properties": {"variable": "Carbon dioxide (surface)", "value": 432.0, "unit": "ppm", "time": "12:00"}, "geometry": {"type": "Point", "coordinates": [9.8, 51.0]}}, {"type": "Feature", "properties": {"variable": "Carbon dioxide (surface)", "value": 432.0, "unit": "ppm", "time": "12:00"}, "geometry": {"type": "Point", "coordinates": [9.9, 51.0]}}, {"type": "Feature", "properties": {"variable": "Carbon dioxide (surface)", "value": 432.0, "unit": "ppm", "time": "12:00"}, "geometry": {"type": "Point", "coordinates": [10.0, 51.0]}}, {"type": "Feature", "properties": {"variable": "Carbon dioxide (surface)", "value": 431.0, "unit": "ppm", "time": "12:00"}, "geometry": {"type": "Point", "coordinates": [10.1, 51.0]}}, {"type": "Feature", "properties": {"variable": "Carbon dioxide (surface)", "value": 431.0, "unit": "ppm", "time": "12:00"}, "geometry": {"type": "Point", "coordinates": [10.2, 51.0]}}, {"type": "Feature", "properties": {"variable": "Carbon dioxide (surface)", "value": 431.0, "unit": "ppm", "time": "12:00"}, "geometry": {"type": "Point", "coordinates": [10.3, 51.0]}}, {"type": "Feature", "properties": {"variable": "Carbon dioxide (surface)", "value": 431.0, "unit": "ppm", "time": "12:00"}, "geometry": {"type": "Point", "coordinates": [10.4, 51.0]}}, {"type": "Feature", "properties": {"variable": "Carbon dioxide (surface)", "value": 431.0, "unit": "ppm", "time": "12:00"}, "geometry": {"type": "Point", "coordinates": [10.5, 51.0]}}, {"type": "Feature", "properties": {"variable": "Carbon dioxide (surface)", "value": 431.0, "unit": "ppm", "time": "12:00"}, "geometry": {"type": "Point", "coordinates": [10.6, 51.0]}}, {"type": "Feature", "properties": {"variable": "Carbon dioxide (surface)", "value": 431.0, "unit": "ppm", "time": "12:00"}, "geometry": {"type": "Point", "coordinates": [10.7, 51.0]}}, {"type": "Feature", "properties": {"variable": "Carbon dioxide (surface)", "value": 431.0, "unit": "ppm", "time": "12:00"}, "geometry": {"type": "Point", "coordinates": [10.8, 51.0]}}, {"type": "Feature", "properties": {"variable": "Carbon dioxide (surface)", "value": 431.0, "unit": "ppm", "time": "12:00"}, "geometry": {"type": "Point", "coordinates": [10.9, 51.0]}}, {"type": "Feature", "properties": {"variable": "Carbon dioxide (surface)", "value": 432.0, "unit": "ppm", "time": "12:00"}, "geometry": {"type": "Point", "coordinates": [11.0, 51.0]}}, {"type": "Feature", "properties": {"variable": "Carbon dioxide (surface)", "value": 431.0, "unit": "ppm", "time": "12:00"}, "geometry": {"type": "Point", "coordinates": [9.0, 51.1]}}, {"type": "Feature", "properties": {"variable": "Carbon dioxide (surface)", "value": 431.0, "unit": "ppm", "time": "12:00"}, "geometry": {"type": "Point", "coordinates": [9.1, 51.1]}}, {"type": "Feature", "properties": {"variable": "Carbon dioxide (surface)", "value": 431.0, "unit": "ppm", "time": "12:00"}, "geometry": {"type": "Point", "coordinates": [9.2, 51.1]}}, {"type": "Feature", "properties": {"variable": "Carbon dioxide (surface)", "value": 432.0, "unit": "ppm", "time": "12:00"}, "geometry": {"type": "Point", "coordinates": [9.3, 51.1]}}, {"type": "Feature", "properties": {"variable": "Carbon dioxide (surface)", "value": 432.0, "unit": "ppm", "time": "12:00"}, "geometry": {"type": "Point", "coordinates": [9.4, 51.1]}}, {"type": "Feature", "properties": {"variable": "Carbon dioxide (surface)", "value": 432.0, "unit": "ppm", "time": "12:00"}, "geometry": {"type": "Point", "coordinates": [9.5, 51.1]}}, {"type": "Feature", "properties": {"variable": "Carbon dioxide (surface)", "value": 431.0, "unit": "ppm", "time": "12:00"}, "geometry": {"type": "Point", "coordinates": [9.6, 51.1]}}, {"type": "Feature", "properties": {"variable": "Carbon dioxide (surface)", "value": 431.0, "unit": "ppm", "time": "12:00"}, "geometry": {"type": "Point", "coordinates": [9.7, 51.1]}}, {"type": "Feature", "properties": {"variable": "Carbon dioxide (surface)", "value": 431.0, "unit": "ppm", "time": "12:00"}, "geometry": {"type": "Point", "coordinates": [9.8, 51.1]}}, {"type": "Feature", "properties": {"variable": "Carbon dioxide (surface)", "value": 431.0, "unit": "ppm", "time": "12:00"}, "geometry": {"type": "Point", "coordinates": [9.9, 51.1]}}, {"type": "Feature", "properties": {"variable": "Carbon dioxide (surface)", "value": 431.0, "unit": "ppm", "time": "12:00"}, "geometry": {"type": "Point", "coordinates": [10.0, 51.1]}}, {"type": "Feature", "properties": {"variable": "Carbon dioxide (surface)", "value": 431.0, "unit": "ppm", "time": "12:00"}, "geometry": {"type": "Point", "coordinates": [10.1, 51.1]}}, {"type": "Feature", "properties": {"variable": "Carbon dioxide (surface)", "value": 431.0, "unit": "ppm", "time": "12:00"}, "geometry": {"type": "Point", "coordinates": [10.2, 51.1]}}, {"type": "Feature", "properties": {"variable": "Carbon dioxide (surface)", "value": 431.0, "unit": "ppm", "time": "12:00"}, "geometry": {"type": "Point", "coordinates": [10.3, 51.1]}}, {"type": "Feature", "properties": {"variable": "Carbon dioxide (surface)", "value": 431.0, "unit": "ppm", "time": "12:00"}, "geometry": {"type": "Point", "coordinates": [10.4, 51.1]}}, {"type": "Feature", "properties": {"variable": "Carbon dioxide (surface)", "value": 432.0, "unit": "ppm", "time": "12:00"}, "geometry": {"type": "Point", "coordinates": [10.5, 51.1]}}, {"type": "Feature", "properties": {"variable": "Carbon dioxide (surface)", "value": 431.0, "unit": "ppm", "time": "12:00"}, "geometry": {"type": "Point", "coordinates": [10.6, 51.1]}}, {"type": "Feature", "properties": {"variable": "Carbon dioxide (surface)", "value": 431.0, "unit": "ppm", "time": "12:00"}, "geometry": {"type": "Point", "coordinates": [10.7, 51.1]}}, {"type": "Feature", "properties": {"variable": "Carbon dioxide (surface)", "value": 431.0, "unit": "ppm", "time": "12:00"}, "geometry": {"type": "Point", "coordinates": [10.8, 51.1]}}, {"type": "Feature", "properties": {"variable": "Carbon dioxide (surface)", "value": 431.0, "unit": "ppm", "time": "12:00"}, "geometry": {"type": "Point", "coordinates": [10.9, 51.1]}}, {"type": "Feature", "properties": {"variable": "Carbon dioxide (surface)", "value": 431.0, "unit": "ppm", "time": "12:00"}, "geometry": {"type": "Point", "coordinates": [11.0, 51.1]}}, {"type": "Feature", "properties": {"variable": "Carbon dioxide (surface)", "value": 430.0, "unit": "ppm", "time": "12:00"}, "geometry": {"type": "Point", "coordinates": [9.0, 51.2]}}, {"type": "Feature", "properties": {"variable": "Carbon dioxide (surface)", "value": 431.0, "unit": "ppm", "time": "12:00"}, "geometry": {"type": "Point", "coordinates": [9.1, 51.2]}}, {"type": "Feature", "properties": {"variable": "Carbon dioxide (surface)", "value": 431.0, "unit": "ppm", "time": "12:00"}, "geometry": {"type": "Point", "coordinates": [9.2, 51.2]}}, {"type": "Feature", "properties": {"variable": "Carbon dioxide (surface)", "value": 431.0, "unit": "ppm", "time": "12:00"}, "geometry": {"type": "Point", "coordinates": [9.3, 51.2]}}, {"type": "Feature", "properties": {"variable": "Carbon dioxide (surface)", "value": 432.0, "unit": "ppm", "time": "12:00"}, "geometry": {"type": "Point", "coordinates": [9.4, 51.2]}}, {"type": "Feature", "properties": {"variable": "Carbon dioxide (surface)", "value": 431.0, "unit": "ppm", "time": "12:00"}, "geometry": {"type": "Point", "coordinates": [9.5, 51.2]}}, {"type": "Feature", "properties": {"variable": "Carbon dioxide (surface)", "value": 431.0, "unit": "ppm", "time": "12:00"}, "geometry": {"type": "Point", "coordinates": [9.6, 51.2]}}, {"type": "Feature", "properties": {"variable": "Carbon dioxide (surface)", "value": 431.0, "unit": "ppm", "time": "12:00"}, "geometry": {"type": "Point", "coordinates": [9.7, 51.2]}}, {"type": "Feature", "properties": {"variable": "Carbon dioxide (surface)", "value": 431.0, "unit": "ppm", "time": "12:00"}, "geometry": {"type": "Point", "coordinates": [9.8, 51.2]}}, {"type": "Feature", "properties": {"variable": "Carbon dioxide (surface)", "value": 432.0, "unit": "ppm", "time": "12:00"}, "geometry": {"type": "Point", "coordinates": [9.9, 51.2]}}, {"type": "Feature", "properties": {"variable": "Carbon dioxide (surface)", "value": 431.0, "unit": "ppm", "time": "12:00"}, "geometry": {"type": "Point", "coordinates": [10.0, 51.2]}}, {"type": "Feature", "properties": {"variable": "Carbon dioxide (surface)", "value": 431.0, "unit": "ppm", "time": "12:00"}, "geometry": {"type": "Point", "coordinates": [10.1, 51.2]}}, {"type": "Feature", "properties": {"variable": "Carbon dioxide (surface)", "value": 431.0, "unit": "ppm", "time": "12:00"}, "geometry": {"type": "Point", "coordinates": [10.2, 51.2]}}, {"type": "Feature", "properties": {"variable": "Carbon dioxide (surface)", "value": 431.0, "unit": "ppm", "time": "12:00"}, "geometry": {"type": "Point", "coordinates": [10.3, 51.2]}}, {"type": "Feature", "properties": {"variable": "Carbon dioxide (surface)", "value": 431.0, "unit": "ppm", "time": "12:00"}, "geometry": {"type": "Point", "coordinates": [10.4, 51.2]}}, {"type": "Feature", "properties": {"variable": "Carbon dioxide (surface)", "value": 431.0, "unit": "ppm", "time": "12:00"}, "geometry": {"type": "Point", "coordinates": [10.5, 51.2]}}, {"type": "Feature", "properties": {"variable": "Carbon dioxide (surface)", "value": 431.0, "unit": "ppm", "time": "12:00"}, "geometry": {"type": "Point", "coordinates": [10.6, 51.2]}}, {"type": "Feature", "properties": {"variable": "Carbon dioxide (surface)", "value": 431.0, "unit": "ppm", "time": "12:00"}, "geometry": {"type": "Point", "coordinates": [10.7, 51.2]}}, {"type": "Feature", "properties": {"variable": "Carbon dioxide (surface)", "value": 431.0, "unit": "ppm", "time": "12:00"}, "geometry": {"type": "Point", "coordinates": [10.8, 51.2]}}, {"type": "Feature", "properties": {"variable": "Carbon dioxide (surface)", "value": 431.0, "unit": "ppm", "time": "12:00"}, "geometry": {"type": "Point", "coordinates": [10.9, 51.2]}}, {"type": "Feature", "properties": {"variable": "Carbon dioxide (surface)", "value": 431.0, "unit": "ppm", "time": "12:00"}, "geometry": {"type": "Point", "coordinates": [11.0, 51.2]}}, {"type": "Feature", "properties": {"variable": "Carbon dioxide (surface)", "value": 431.0, "unit": "ppm", "time": "12:00"}, "geometry": {"type": "Point", "coordinates": [9.0, 51.3]}}, {"type": "Feature", "properties": {"variable": "Carbon dioxide (surface)", "value": 431.0, "unit": "ppm", "time": "12:00"}, "geometry": {"type": "Point", "coordinates": [9.1, 51.3]}}, {"type": "Feature", "properties": {"variable": "Carbon dioxide (surface)", "value": 431.0, "unit": "ppm", "time": "12:00"}, "geometry": {"type": "Point", "coordinates": [9.2, 51.3]}}, {"type": "Feature", "properties": {"variable": "Carbon dioxide (surface)", "value": 432.0, "unit": "ppm", "time": "12:00"}, "geometry": {"type": "Point", "coordinates": [9.3, 51.3]}}, {"type": "Feature", "properties": {"variable": "Carbon dioxide (surface)", "value": 432.0, "unit": "ppm", "time": "12:00"}, "geometry": {"type": "Point", "coordinates": [9.4, 51.3]}}, {"type": "Feature", "properties": {"variable": "Carbon dioxide (surface)", "value": 432.0, "unit": "ppm", "time": "12:00"}, "geometry": {"type": "Point", "coordinates": [9.5, 51.3]}}, {"type": "Feature", "properties": {"variable": "Carbon dioxide (surface)", "value": 432.0, "unit": "ppm", "time": "12:00"}, "geometry": {"type": "Point", "coordinates": [9.6, 51.3]}}, {"type": "Feature", "properties": {"variable": "Carbon dioxide (surface)", "value": 432.0, "unit": "ppm", "time": "12:00"}, "geometry": {"type": "Point", "coordinates": [9.7, 51.3]}}, {"type": "Feature", "properties": {"variable": "Carbon dioxide (surface)", "value": 432.0, "unit": "ppm", "time": "12:00"}, "geometry": {"type": "Point", "coordinates": [9.8, 51.3]}}, {"type": "Feature", "properties": {"variable": "Carbon dioxide (surface)", "value": 432.0, "unit": "ppm", "time": "12:00"}, "geometry": {"type": "Point", "coordinates": [9.9, 51.3]}}, {"type": "Feature", "properties": {"variable": "Carbon dioxide (surface)", "value": 431.0, "unit": "ppm", "time": "12:00"}, "geometry": {"type": "Point", "coordinates": [10.0, 51.3]}}, {"type": "Feature", "properties": {"variable": "Carbon dioxide (surface)", "value": 431.0, "unit": "ppm", "time": "12:00"}, "geometry": {"type": "Point", "coordinates": [10.1, 51.3]}}, {"type": "Feature", "properties": {"variable": "Carbon dioxide (surface)", "value": 431.0, "unit": "ppm", "time": "12:00"}, "geometry": {"type": "Point", "coordinates": [10.2, 51.3]}}, {"type": "Feature", "properties": {"variable": "Carbon dioxide (surface)", "value": 431.0, "unit": "ppm", "time": "12:00"}, "geometry": {"type": "Point", "coordinates": [10.3, 51.3]}}, {"type": "Feature", "properties": {"variable": "Carbon dioxide (surface)", "value": 431.0, "unit": "ppm", "time": "12:00"}, "geometry": {"type": "Point", "coordinates": [10.4, 51.3]}}, {"type": "Feature", "properties": {"variable": "Carbon dioxide (surface)", "value": 431.0, "unit": "ppm", "time": "12:00"}, "geometry": {"type": "Point", "coordinates": [10.5, 51.3]}}, {"type": "Feature", "properties": {"variable": "Carbon dioxide (surface)", "value": 431.0, "unit": "ppm", "time": "12:00"}, "geometry": {"type": "Point", "coordinates": [10.6, 51.3]}}, {"type": "Feature", "properties": {"variable": "Carbon dioxide (surface)", "value": 431.0, "unit": "ppm", "time": "12:00"}, "geometry": {"type": "Point", "coordinates": [10.7, 51.3]}}, {"type": "Feature", "properties": {"variable": "Carbon dioxide (surface)", "value": 431.0, "unit": "ppm", "time": "12:00"}, "geometry": {"type": "Point", "coordinates": [10.8, 51.3]}}, {"type": "Feature", "properties": {"variable": "Carbon dioxide (surface)", "value": 431.0, "unit": "ppm", "time": "12:00"}, "geometry": {"type": "Point", "coordinates": [10.9, 51.3]}}, {"type": "Feature", "properties": {"variable": "Carbon dioxide (surface)", "value": 431.0, "unit": "ppm", "time": "12:00"}, "geometry": {"type": "Point", "coordinates": [11.0, 51.3]}}, {"type": "Feature", "properties": {"variable": "Carbon dioxide (surface)", "value": 432.0, "unit": "ppm", "time": "12:00"}, "geometry": {"type": "Point", "coordinates": [9.0, 51.4]}}, {"type": "Feature", "properties": {"variable": "Carbon dioxide (surface)", "value": 432.0, "unit": "ppm", "time": "12:00"}, "geometry": {"type": "Point", "coordinates": [9.1, 51.4]}}, {"type": "Feature", "properties": {"variable": "Carbon dioxide (surface)", "value": 433.0, "unit": "ppm", "time": "12:00"}, "geometry": {"type": "Point", "coordinates": [9.2, 51.4]}}, {"type": "Feature", "properties": {"variable": "Carbon dioxide (surface)", "value": 432.0, "unit": "ppm", "time": "12:00"}, "geometry": {"type": "Point", "coordinates": [9.3, 51.4]}}, {"type": "Feature", "properties": {"variable": "Carbon dioxide (surface)", "value": 432.0, "unit": "ppm", "time": "12:00"}, "geometry": {"type": "Point", "coordinates": [9.4, 51.4]}}, {"type": "Feature", "properties": {"variable": "Carbon dioxide (surface)", "value": 432.0, "unit": "ppm", "time": "12:00"}, "geometry": {"type": "Point", "coordinates": [9.5, 51.4]}}, {"type": "Feature", "properties": {"variable": "Carbon dioxide (surface)", "value": 432.0, "unit": "ppm", "time": "12:00"}, "geometry": {"type": "Point", "coordinates": [9.6, 51.4]}}, {"type": "Feature", "properties": {"variable": "Carbon dioxide (surface)", "value": 431.0, "unit": "ppm", "time": "12:00"}, "geometry": {"type": "Point", "coordinates": [9.7, 51.4]}}, {"type": "Feature", "properties": {"variable": "Carbon dioxide (surface)", "value": 431.0, "unit": "ppm", "time": "12:00"}, "geometry": {"type": "Point", "coordinates": [9.8, 51.4]}}, {"type": "Feature", "properties": {"variable": "Carbon dioxide (surface)", "value": 431.0, "unit": "ppm", "time": "12:00"}, "geometry": {"type": "Point", "coordinates": [9.9, 51.4]}}, {"type": "Feature", "properties": {"variable": "Carbon dioxide (surface)", "value": 431.0, "unit": "ppm", "time": "12:00"}, "geometry": {"type": "Point", "coordinates": [10.0, 51.4]}}, {"type": "Feature", "properties": {"variable": "Carbon dioxide (surface)", "value": 430.0, "unit": "ppm", "time": "12:00"}, "geometry": {"type": "Point", "coordinates": [10.1, 51.4]}}, {"type": "Feature", "properties": {"variable": "Carbon dioxide (surface)", "value": 430.0, "unit": "ppm", "time": "12:00"}, "geometry": {"type": "Point", "coordinates": [10.2, 51.4]}}, {"type": "Feature", "properties": {"variable": "Carbon dioxide (surface)", "value": 430.0, "unit": "ppm", "time": "12:00"}, "geometry": {"type": "Point", "coordinates": [10.3, 51.4]}}, {"type": "Feature", "properties": {"variable": "Carbon dioxide (surface)", "value": 431.0, "unit": "ppm", "time": "12:00"}, "geometry": {"type": "Point", "coordinates": [10.4, 51.4]}}, {"type": "Feature", "properties": {"variable": "Carbon dioxide (surface)", "value": 431.0, "unit": "ppm", "time": "12:00"}, "geometry": {"type": "Point", "coordinates": [10.5, 51.4]}}, {"type": "Feature", "properties": {"variable": "Carbon dioxide (surface)", "value": 431.0, "unit": "ppm", "time": "12:00"}, "geometry": {"type": "Point", "coordinates": [10.6, 51.4]}}, {"type": "Feature", "properties": {"variable": "Carbon dioxide (surface)", "value": 431.0, "unit": "ppm", "time": "12:00"}, "geometry": {"type": "Point", "coordinates": [10.7, 51.4]}}, {"type": "Feature", "properties": {"variable": "Carbon dioxide (surface)", "value": 431.0, "unit": "ppm", "time": "12:00"}, "geometry": {"type": "Point", "coordinates": [10.8, 51.4]}}, {"type": "Feature", "properties": {"variable": "Carbon dioxide (surface)", "value": 431.0, "unit": "ppm", "time": "12:00"}, "geometry": {"type": "Point", "coordinates": [10.9, 51.4]}}, {"type": "Feature", "properties": {"variable": "Carbon dioxide (surface)", "value": 431.0, "unit": "ppm", "time": "12:00"}, "geometry": {"type": "Point", "coordinates": [11.0, 51.4]}}, {"type": "Feature", "properties": {"variable": "Carbon dioxide (surface)", "value": 432.0, "unit": "ppm", "time": "12:00"}, "geometry": {"type": "Point", "coordinates": [9.0, 51.5]}}, {"type": "Feature", "properties": {"variable": "Carbon dioxide (surface)", "value": 433.0, "unit": "ppm", "time": "12:00"}, "geometry": {"type": "Point", "coordinates": [9.1, 51.5]}}, {"type": "Feature", "properties": {"variable": "Carbon dioxide (surface)", "value": 432.0, "unit": "ppm", "time": "12:00"}, "geometry": {"type": "Point", "coordinates": [9.2, 51.5]}}, {"type": "Feature", "properties": {"variable": "Carbon dioxide (surface)", "value": 432.0, "unit": "ppm", "time": "12:00"}, "geometry": {"type": "Point", "coordinates": [9.3, 51.5]}}, {"type": "Feature", "properties": {"variable": "Carbon dioxide (surface)", "value": 431.0, "unit": "ppm", "time": "12:00"}, "geometry": {"type": "Point", "coordinates": [9.4, 51.5]}}, {"type": "Feature", "properties": {"variable": "Carbon dioxide (surface)", "value": 431.0, "unit": "ppm", "time": "12:00"}, "geometry": {"type": "Point", "coordinates": [9.5, 51.5]}}, {"type": "Feature", "properties": {"variable": "Carbon dioxide (surface)", "value": 431.0, "unit": "ppm", "time": "12:00"}, "geometry": {"type": "Point", "coordinates": [9.6, 51.5]}}, {"type": "Feature", "properties": {"variable": "Carbon dioxide (surface)", "value": 431.0, "unit": "ppm", "time": "12:00"}, "geometry": {"type": "Point", "coordinates": [9.7, 51.5]}}, {"type": "Feature", "properties": {"variable": "Carbon dioxide (surface)", "value": 431.0, "unit": "ppm", "time": "12:00"}, "geometry": {"type": "Point", "coordinates": [9.8, 51.5]}}, {"type": "Feature", "properties": {"variable": "Carbon dioxide (surface)", "value": 431.0, "unit": "ppm", "time": "12:00"}, "geometry": {"type": "Point", "coordinates": [9.9, 51.5]}}, {"type": "Feature", "properties": {"variable": "Carbon dioxide (surface)", "value": 431.0, "unit": "ppm", "time": "12:00"}, "geometry": {"type": "Point", "coordinates": [10.0, 51.5]}}, {"type": "Feature", "properties": {"variable": "Carbon dioxide (surface)", "value": 430.0, "unit": "ppm", "time": "12:00"}, "geometry": {"type": "Point", "coordinates": [10.1, 51.5]}}, {"type": "Feature", "properties": {"variable": "Carbon dioxide (surface)", "value": 430.0, "unit": "ppm", "time": "12:00"}, "geometry": {"type": "Point", "coordinates": [10.2, 51.5]}}, {"type": "Feature", "properties": {"variable": "Carbon dioxide (surface)", "value": 430.0, "unit": "ppm", "time": "12:00"}, "geometry": {"type": "Point", "coordinates": [10.3, 51.5]}}, {"type": "Feature", "properties": {"variable": "Carbon dioxide (surface)", "value": 430.0, "unit": "ppm", "time": "12:00"}, "geometry": {"type": "Point", "coordinates": [10.4, 51.5]}}, {"type": "Feature", "properties": {"variable": "Carbon dioxide (surface)", "value": 430.0, "unit": "ppm", "time": "12:00"}, "geometry": {"type": "Point", "coordinates": [10.5, 51.5]}}, {"type": "Feature", "properties": {"variable": "Carbon dioxide (surface)", "value": 430.0, "unit": "ppm", "time": "12:00"}, "geometry": {"type": "Point", "coordinates": [10.6, 51.5]}}, {"type": "Feature", "properties": {"variable": "Carbon dioxide (surface)", "value": 430.0, "unit": "ppm", "time": "12:00"}, "geometry": {"type": "Point", "coordinates": [10.7, 51.5]}}, {"type": "Feature", "properties": {"variable": "Carbon dioxide (surface)", "value": 430.0, "unit": "ppm", "time": "12:00"}, "geometry": {"type": "Point", "coordinates": [10.8, 51.5]}}, {"type": "Feature", "properties": {"variable": "Carbon dioxide (surface)", "value": 430.0, "unit": "ppm", "time": "12:00"}, "geometry": {"type": "Point", "coordinates": [10.9, 51.5]}}, {"type": "Feature", "properties": {"variable": "Carbon dioxide (surface)", "value": 430.0, "unit": "ppm", "time": "12:00"}, "geometry": {"type": "Point", "coordinates": [11.0, 51.5]}}, {"type": "Feature", "properties": {"variable": "Carbon dioxide (surface)", "value": 431.0, "unit": "ppm", "time": "12:00"}, "geometry": {"type": "Point", "coordinates": [9.0, 51.6]}}, {"type": "Feature", "properties": {"variable": "Carbon dioxide (surface)", "value": 431.0, "unit": "ppm", "time": "12:00"}, "geometry": {"type": "Point", "coordinates": [9.1, 51.6]}}, {"type": "Feature", "properties": {"variable": "Carbon dioxide (surface)", "value": 431.0, "unit": "ppm", "time": "12:00"}, "geometry": {"type": "Point", "coordinates": [9.2, 51.6]}}, {"type": "Feature", "properties": {"variable": "Carbon dioxide (surface)", "value": 431.0, "unit": "ppm", "time": "12:00"}, "geometry": {"type": "Point", "coordinates": [9.3, 51.6]}}, {"type": "Feature", "properties": {"variable": "Carbon dioxide (surface)", "value": 431.0, "unit": "ppm", "time": "12:00"}, "geometry": {"type": "Point", "coordinates": [9.4, 51.6]}}, {"type": "Feature", "properties": {"variable": "Carbon dioxide (surface)", "value": 431.0, "unit": "ppm", "time": "12:00"}, "geometry": {"type": "Point", "coordinates": [9.5, 51.6]}}, {"type": "Feature", "properties": {"variable": "Carbon dioxide (surface)", "value": 430.0, "unit": "ppm", "time": "12:00"}, "geometry": {"type": "Point", "coordinates": [9.6, 51.6]}}, {"type": "Feature", "properties": {"variable": "Carbon dioxide (surface)", "value": 430.0, "unit": "ppm", "time": "12:00"}, "geometry": {"type": "Point", "coordinates": [9.7, 51.6]}}, {"type": "Feature", "properties": {"variable": "Carbon dioxide (surface)", "value": 431.0, "unit": "ppm", "time": "12:00"}, "geometry": {"type": "Point", "coordinates": [9.8, 51.6]}}, {"type": "Feature", "properties": {"variable": "Carbon dioxide (surface)", "value": 431.0, "unit": "ppm", "time": "12:00"}, "geometry": {"type": "Point", "coordinates": [9.9, 51.6]}}, {"type": "Feature", "properties": {"variable": "Carbon dioxide (surface)", "value": 431.0, "unit": "ppm", "time": "12:00"}, "geometry": {"type": "Point", "coordinates": [10.0, 51.6]}}, {"type": "Feature", "properties": {"variable": "Carbon dioxide (surface)", "value": 430.0, "unit": "ppm", "time": "12:00"}, "geometry": {"type": "Point", "coordinates": [10.1, 51.6]}}, {"type": "Feature", "properties": {"variable": "Carbon dioxide (surface)", "value": 431.0, "unit": "ppm", "time": "12:00"}, "geometry": {"type": "Point", "coordinates": [10.2, 51.6]}}, {"type": "Feature", "properties": {"variable": "Carbon dioxide (surface)", "value": 430.0, "unit": "ppm", "time": "12:00"}, "geometry": {"type": "Point", "coordinates": [10.3, 51.6]}}, {"type": "Feature", "properties": {"variable": "Carbon dioxide (surface)", "value": 430.0, "unit": "ppm", "time": "12:00"}, "geometry": {"type": "Point", "coordinates": [10.4, 51.6]}}, {"type": "Feature", "properties": {"variable": "Carbon dioxide (surface)", "value": 430.0, "unit": "ppm", "time": "12:00"}, "geometry": {"type": "Point", "coordinates": [10.5, 51.6]}}, {"type": "Feature", "properties": {"variable": "Carbon dioxide (surface)", "value": 429.0, "unit": "ppm", "time": "12:00"}, "geometry": {"type": "Point", "coordinates": [10.6, 51.6]}}, {"type": "Feature", "properties": {"variable": "Carbon dioxide (surface)", "value": 429.0, "unit": "ppm", "time": "12:00"}, "geometry": {"type": "Point", "coordinates": [10.7, 51.6]}}, {"type": "Feature", "properties": {"variable": "Carbon dioxide (surface)", "value": 429.0, "unit": "ppm", "time": "12:00"}, "geometry": {"type": "Point", "coordinates": [10.8, 51.6]}}, {"type": "Feature", "properties": {"variable": "Carbon dioxide (surface)", "value": 428.0, "unit": "ppm", "time": "12:00"}, "geometry": {"type": "Point", "coordinates": [10.9, 51.6]}}, {"type": "Feature", "properties": {"variable": "Carbon dioxide (surface)", "value": 428.0, "unit": "ppm", "time": "12:00"}, "geometry": {"type": "Point", "coordinates": [11.0, 51.6]}}, {"type": "Feature", "properties": {"variable": "Carbon dioxide (surface)", "value": 430.0, "unit": "ppm", "time": "12:00"}, "geometry": {"type": "Point", "coordinates": [9.0, 51.7]}}, {"type": "Feature", "properties": {"variable": "Carbon dioxide (surface)", "value": 430.0, "unit": "ppm", "time": "12:00"}, "geometry": {"type": "Point", "coordinates": [9.1, 51.7]}}, {"type": "Feature", "properties": {"variable": "Carbon dioxide (surface)", "value": 430.0, "unit": "ppm", "time": "12:00"}, "geometry": {"type": "Point", "coordinates": [9.2, 51.7]}}, {"type": "Feature", "properties": {"variable": "Carbon dioxide (surface)", "value": 430.0, "unit": "ppm", "time": "12:00"}, "geometry": {"type": "Point", "coordinates": [9.3, 51.7]}}, {"type": "Feature", "properties": {"variable": "Carbon dioxide (surface)", "value": 430.0, "unit": "ppm", "time": "12:00"}, "geometry": {"type": "Point", "coordinates": [9.4, 51.7]}}, {"type": "Feature", "properties": {"variable": "Carbon dioxide (surface)", "value": 430.0, "unit": "ppm", "time": "12:00"}, "geometry": {"type": "Point", "coordinates": [9.5, 51.7]}}, {"type": "Feature", "properties": {"variable": "Carbon dioxide (surface)", "value": 430.0, "unit": "ppm", "time": "12:00"}, "geometry": {"type": "Point", "coordinates": [9.6, 51.7]}}, {"type": "Feature", "properties": {"variable": "Carbon dioxide (surface)", "value": 430.0, "unit": "ppm", "time": "12:00"}, "geometry": {"type": "Point", "coordinates": [9.7, 51.7]}}, {"type": "Feature", "properties": {"variable": "Carbon dioxide (surface)", "value": 430.0, "unit": "ppm", "time": "12:00"}, "geometry": {"type": "Point", "coordinates": [9.8, 51.7]}}, {"type": "Feature", "properties": {"variable": "Carbon dioxide (surface)", "value": 431.0, "unit": "ppm", "time": "12:00"}, "geometry": {"type": "Point", "coordinates": [9.9, 51.7]}}, {"type": "Feature", "properties": {"variable": "Carbon dioxide (surface)", "value": 431.0, "unit": "ppm", "time": "12:00"}, "geometry": {"type": "Point", "coordinates": [10.0, 51.7]}}, {"type": "Feature", "properties": {"variable": "Carbon dioxide (surface)", "value": 431.0, "unit": "ppm", "time": "12:00"}, "geometry": {"type": "Point", "coordinates": [10.1, 51.7]}}, {"type": "Feature", "properties": {"variable": "Carbon dioxide (surface)", "value": 430.0, "unit": "ppm", "time": "12:00"}, "geometry": {"type": "Point", "coordinates": [10.2, 51.7]}}, {"type": "Feature", "properties": {"variable": "Carbon dioxide (surface)", "value": 429.0, "unit": "ppm", "time": "12:00"}, "geometry": {"type": "Point", "coordinates": [10.3, 51.7]}}, {"type": "Feature", "properties": {"variable": "Carbon dioxide (surface)", "value": 429.0, "unit": "ppm", "time": "12:00"}, "geometry": {"type": "Point", "coordinates": [10.4, 51.7]}}, {"type": "Feature", "properties": {"variable": "Carbon dioxide (surface)", "value": 429.0, "unit": "ppm", "time": "12:00"}, "geometry": {"type": "Point", "coordinates": [10.5, 51.7]}}, {"type": "Feature", "properties": {"variable": "Carbon dioxide (surface)", "value": 428.0, "unit": "ppm", "time": "12:00"}, "geometry": {"type": "Point", "coordinates": [10.6, 51.7]}}, {"type": "Feature", "properties": {"variable": "Carbon dioxide (surface)", "value": 428.0, "unit": "ppm", "time": "12:00"}, "geometry": {"type": "Point", "coordinates": [10.7, 51.7]}}, {"type": "Feature", "properties": {"variable": "Carbon dioxide (surface)", "value": 429.0, "unit": "ppm", "time": "12:00"}, "geometry": {"type": "Point", "coordinates": [10.8, 51.7]}}, {"type": "Feature", "properties": {"variable": "Carbon dioxide (surface)", "value": 428.0, "unit": "ppm", "time": "12:00"}, "geometry": {"type": "Point", "coordinates": [10.9, 51.7]}}, {"type": "Feature", "properties": {"variable": "Carbon dioxide (surface)", "value": 428.0, "unit": "ppm", "time": "12:00"}, "geometry": {"type": "Point", "coordinates": [11.0, 51.7]}}, {"type": "Feature", "properties": {"variable": "Carbon dioxide (surface)", "value": 428.0, "unit": "ppm", "time": "12:00"}, "geometry": {"type": "Point", "coordinates": [9.0, 51.8]}}, {"type": "Feature", "properties": {"variable": "Carbon dioxide (surface)", "value": 429.0, "unit": "ppm", "time": "12:00"}, "geometry": {"type": "Point", "coordinates": [9.1, 51.8]}}, {"type": "Feature", "properties": {"variable": "Carbon dioxide (surface)", "value": 429.0, "unit": "ppm", "time": "12:00"}, "geometry": {"type": "Point", "coordinates": [9.2, 51.8]}}, {"type": "Feature", "properties": {"variable": "Carbon dioxide (surface)", "value": 430.0, "unit": "ppm", "time": "12:00"}, "geometry": {"type": "Point", "coordinates": [9.3, 51.8]}}, {"type": "Feature", "properties": {"variable": "Carbon dioxide (surface)", "value": 430.0, "unit": "ppm", "time": "12:00"}, "geometry": {"type": "Point", "coordinates": [9.4, 51.8]}}, {"type": "Feature", "properties": {"variable": "Carbon dioxide (surface)", "value": 430.0, "unit": "ppm", "time": "12:00"}, "geometry": {"type": "Point", "coordinates": [9.5, 51.8]}}, {"type": "Feature", "properties": {"variable": "Carbon dioxide (surface)", "value": 430.0, "unit": "ppm", "time": "12:00"}, "geometry": {"type": "Point", "coordinates": [9.6, 51.8]}}, {"type": "Feature", "properties": {"variable": "Carbon dioxide (surface)", "value": 430.0, "unit": "ppm", "time": "12:00"}, "geometry": {"type": "Point", "coordinates": [9.7, 51.8]}}, {"type": "Feature", "properties": {"variable": "Carbon dioxide (surface)", "value": 431.0, "unit": "ppm", "time": "12:00"}, "geometry": {"type": "Point", "coordinates": [9.8, 51.8]}}, {"type": "Feature", "properties": {"variable": "Carbon dioxide (surface)", "value": 431.0, "unit": "ppm", "time": "12:00"}, "geometry": {"type": "Point", "coordinates": [9.9, 51.8]}}, {"type": "Feature", "properties": {"variable": "Carbon dioxide (surface)", "value": 431.0, "unit": "ppm", "time": "12:00"}, "geometry": {"type": "Point", "coordinates": [10.0, 51.8]}}, {"type": "Feature", "properties": {"variable": "Carbon dioxide (surface)", "value": 430.0, "unit": "ppm", "time": "12:00"}, "geometry": {"type": "Point", "coordinates": [10.1, 51.8]}}, {"type": "Feature", "properties": {"variable": "Carbon dioxide (surface)", "value": 430.0, "unit": "ppm", "time": "12:00"}, "geometry": {"type": "Point", "coordinates": [10.2, 51.8]}}, {"type": "Feature", "properties": {"variable": "Carbon dioxide (surface)", "value": 429.0, "unit": "ppm", "time": "12:00"}, "geometry": {"type": "Point", "coordinates": [10.3, 51.8]}}, {"type": "Feature", "properties": {"variable": "Carbon dioxide (surface)", "value": 429.0, "unit": "ppm", "time": "12:00"}, "geometry": {"type": "Point", "coordinates": [10.4, 51.8]}}, {"type": "Feature", "properties": {"variable": "Carbon dioxide (surface)", "value": 429.0, "unit": "ppm", "time": "12:00"}, "geometry": {"type": "Point", "coordinates": [10.5, 51.8]}}, {"type": "Feature", "properties": {"variable": "Carbon dioxide (surface)", "value": 429.0, "unit": "ppm", "time": "12:00"}, "geometry": {"type": "Point", "coordinates": [10.6, 51.8]}}, {"type": "Feature", "properties": {"variable": "Carbon dioxide (surface)", "value": 429.0, "unit": "ppm", "time": "12:00"}, "geometry": {"type": "Point", "coordinates": [10.7, 51.8]}}, {"type": "Feature", "properties": {"variable": "Carbon dioxide (surface)", "value": 430.0, "unit": "ppm", "time": "12:00"}, "geometry": {"type": "Point", "coordinates": [10.8, 51.8]}}, {"type": "Feature", "properties": {"variable": "Carbon dioxide (surface)", "value": 430.0, "unit": "ppm", "time": "12:00"}, "geometry": {"type": "Point", "coordinates": [10.9, 51.8]}}, {"type": "Feature", "properties": {"variable": "Carbon dioxide (surface)", "value": 430.0, "unit": "ppm", "time": "12:00"}, "geometry": {"type": "Point", "coordinates": [11.0, 51.8]}}, {"type": "Feature", "properties": {"variable": "Carbon dioxide (surface)", "value": 430.0, "unit": "ppm", "time": "12:00"}, "geometry": {"type": "Point", "coordinates": [9.0, 51.9]}}, {"type": "Feature", "properties": {"variable": "Carbon dioxide (surface)", "value": 430.0, "unit": "ppm", "time": "12:00"}, "geometry": {"type": "Point", "coordinates": [9.1, 51.9]}}, {"type": "Feature", "properties": {"variable": "Carbon dioxide (surface)", "value": 430.0, "unit": "ppm", "time": "12:00"}, "geometry": {"type": "Point", "coordinates": [9.2, 51.9]}}, {"type": "Feature", "properties": {"variable": "Carbon dioxide (surface)", "value": 430.0, "unit": "ppm", "time": "12:00"}, "geometry": {"type": "Point", "coordinates": [9.3, 51.9]}}, {"type": "Feature", "properties": {"variable": "Carbon dioxide (surface)", "value": 430.0, "unit": "ppm", "time": "12:00"}, "geometry": {"type": "Point", "coordinates": [9.4, 51.9]}}, {"type": "Feature", "properties": {"variable": "Carbon dioxide (surface)", "value": 430.0, "unit": "ppm", "time": "12:00"}, "geometry": {"type": "Point", "coordinates": [9.5, 51.9]}}, {"type": "Feature", "properties": {"variable": "Carbon dioxide (surface)", "value": 430.0, "unit": "ppm", "time": "12:00"}, "geometry": {"type": "Point", "coordinates": [9.6, 51.9]}}, {"type": "Feature", "properties": {"variable": "Carbon dioxide (surface)", "value": 431.0, "unit": "ppm", "time": "12:00"}, "geometry": {"type": "Point", "coordinates": [9.7, 51.9]}}, {"type": "Feature", "properties": {"variable": "Carbon dioxide (surface)", "value": 431.0, "unit": "ppm", "time": "12:00"}, "geometry": {"type": "Point", "coordinates": [9.8, 51.9]}}, {"type": "Feature", "properties": {"variable": "Carbon dioxide (surface)", "value": 431.0, "unit": "ppm", "time": "12:00"}, "geometry": {"type": "Point", "coordinates": [9.9, 51.9]}}, {"type": "Feature", "properties": {"variable": "Carbon dioxide (surface)", "value": 431.0, "unit": "ppm", "time": "12:00"}, "geometry": {"type": "Point", "coordinates": [10.0, 51.9]}}, {"type": "Feature", "properties": {"variable": "Carbon dioxide (surface)", "value": 431.0, "unit": "ppm", "time": "12:00"}, "geometry": {"type": "Point", "coordinates": [10.1, 51.9]}}, {"type": "Feature", "properties": {"variable": "Carbon dioxide (surface)", "value": 431.0, "unit": "ppm", "time": "12:00"}, "geometry": {"type": "Point", "coordinates": [10.2, 51.9]}}, {"type": "Feature", "properties": {"variable": "Carbon dioxide (surface)", "value": 430.0, "unit": "ppm", "time": "12:00"}, "geometry": {"type": "Point", "coordinates": [10.3, 51.9]}}, {"type": "Feature", "properties": {"variable": "Carbon dioxide (surface)", "value": 430.0, "unit": "ppm", "time": "12:00"}, "geometry": {"type": "Point", "coordinates": [10.4, 51.9]}}, {"type": "Feature", "properties": {"variable": "Carbon dioxide (surface)", "value": 430.0, "unit": "ppm", "time": "12:00"}, "geometry": {"type": "Point", "coordinates": [10.5, 51.9]}}, {"type": "Feature", "properties": {"variable": "Carbon dioxide (surface)", "value": 430.0, "unit": "ppm", "time": "12:00"}, "geometry": {"type": "Point", "coordinates": [10.6, 51.9]}}, {"type": "Feature", "properties": {"variable": "Carbon dioxide (surface)", "value": 431.0, "unit": "ppm", "time": "12:00"}, "geometry": {"type": "Point", "coordinates": [10.7, 51.9]}}, {"type": "Feature", "properties": {"variable": "Carbon dioxide (surface)", "value": 431.0, "unit": "ppm", "time": "12:00"}, "geometry": {"type": "Point", "coordinates": [10.8, 51.9]}}, {"type": "Feature", "properties": {"variable": "Carbon dioxide (surface)", "value": 431.0, "unit": "ppm", "time": "12:00"}, "geometry": {"type": "Point", "coordinates": [10.9, 51.9]}}, {"type": "Feature", "properties": {"variable": "Carbon dioxide (surface)", "value": 431.0, "unit": "ppm", "time": "12:00"}, "geometry": {"type": "Point", "coordinates": [11.0, 51.9]}}, {"type": "Feature", "properties": {"variable": "Carbon dioxide (surface)", "value": 430.0, "unit": "ppm", "time": "12:00"}, "geometry": {"type": "Point", "coordinates": [9.0, 52.0]}}, {"type": "Feature", "properties": {"variable": "Carbon dioxide (surface)", "value": 430.0, "unit": "ppm", "time": "12:00"}, "geometry": {"type": "Point", "coordinates": [9.1, 52.0]}}, {"type": "Feature", "properties": {"variable": "Carbon dioxide (surface)", "value": 430.0, "unit": "ppm", "time": "12:00"}, "geometry": {"type": "Point", "coordinates": [9.2, 52.0]}}, {"type": "Feature", "properties": {"variable": "Carbon dioxide (surface)", "value": 430.0, "unit": "ppm", "time": "12:00"}, "geometry": {"type": "Point", "coordinates": [9.3, 52.0]}}, {"type": "Feature", "properties": {"variable": "Carbon dioxide (surface)", "value": 431.0, "unit": "ppm", "time": "12:00"}, "geometry": {"type": "Point", "coordinates": [9.4, 52.0]}}, {"type": "Feature", "properties": {"variable": "Carbon dioxide (surface)", "value": 431.0, "unit": "ppm", "time": "12:00"}, "geometry": {"type": "Point", "coordinates": [9.5, 52.0]}}, {"type": "Feature", "properties": {"variable": "Carbon dioxide (surface)", "value": 431.0, "unit": "ppm", "time": "12:00"}, "geometry": {"type": "Point", "coordinates": [9.6, 52.0]}}, {"type": "Feature", "properties": {"variable": "Carbon dioxide (surface)", "value": 431.0, "unit": "ppm", "time": "12:00"}, "geometry": {"type": "Point", "coordinates": [9.7, 52.0]}}, {"type": "Feature", "properties": {"variable": "Carbon dioxide (surface)", "value": 431.0, "unit": "ppm", "time": "12:00"}, "geometry": {"type": "Point", "coordinates": [9.8, 52.0]}}, {"type": "Feature", "properties": {"variable": "Carbon dioxide (surface)", "value": 431.0, "unit": "ppm", "time": "12:00"}, "geometry": {"type": "Point", "coordinates": [9.9, 52.0]}}, {"type": "Feature", "properties": {"variable": "Carbon dioxide (surface)", "value": 432.0, "unit": "ppm", "time": "12:00"}, "geometry": {"type": "Point", "coordinates": [10.0, 52.0]}}, {"type": "Feature", "properties": {"variable": "Carbon dioxide (surface)", "value": 432.0, "unit": "ppm", "time": "12:00"}, "geometry": {"type": "Point", "coordinates": [10.1, 52.0]}}, {"type": "Feature", "properties": {"variable": "Carbon dioxide (surface)", "value": 431.0, "unit": "ppm", "time": "12:00"}, "geometry": {"type": "Point", "coordinates": [10.2, 52.0]}}, {"type": "Feature", "properties": {"variable": "Carbon dioxide (surface)", "value": 431.0, "unit": "ppm", "time": "12:00"}, "geometry": {"type": "Point", "coordinates": [10.3, 52.0]}}, {"type": "Feature", "properties": {"variable": "Carbon dioxide (surface)", "value": 431.0, "unit": "ppm", "time": "12:00"}, "geometry": {"type": "Point", "coordinates": [10.4, 52.0]}}, {"type": "Feature", "properties": {"variable": "Carbon dioxide (surface)", "value": 431.0, "unit": "ppm", "time": "12:00"}, "geometry": {"type": "Point", "coordinates": [10.5, 52.0]}}, {"type": "Feature", "properties": {"variable": "Carbon dioxide (surface)", "value": 431.0, "unit": "ppm", "time": "12:00"}, "geometry": {"type": "Point", "coordinates": [10.6, 52.0]}}, {"type": "Feature", "properties": {"variable": "Carbon dioxide (surface)", "value": 431.0, "unit": "ppm", "time": "12:00"}, "geometry": {"type": "Point", "coordinates": [10.7, 52.0]}}, {"type": "Feature", "properties": {"variable": "Carbon dioxide (surface)", "value": 431.0, "unit": "ppm", "time": "12:00"}, "geometry": {"type": "Point", "coordinates": [10.8, 52.0]}}, {"type": "Feature", "properties": {"variable": "Carbon dioxide (surface)", "value": 431.0, "unit": "ppm", "time": "12:00"}, "geometry": {"type": "Point", "coordinates": [10.9, 52.0]}}, {"type": "Feature", "properties": {"variable": "Carbon dioxide (surface)", "value": 432.0, "unit": "ppm", "time": "12:00"}, "geometry": {"type": "Point", "coordinates": [11.0, 52.0]}}]}