{"type": "FeatureCollection", "name": "gottingen-temperature.geojson", "properties": {"variable": "Air temperature", "unit": "°C", "source": "Sensor.Community"}, "features": [{"type": "Feature", "properties": {"variable": "Air temperature", "value": 27.1, "unit": "°C", "time": "2026-09-18 09:47:37", "sensor": "DHT22", "station": 2651, "source": "Sensor.Community"}, "geometry": {"type": "Point", "coordinates": [9.928, 51.594]}}, {"type": "Feature", "properties": {"variable": "Air temperature", "value": 22.1, "unit": "°C", "time": "2026-09-18 09:47:37", "sensor": "DHT22", "station": 77129, "source": "Sensor.Community"}, "geometry": {"type": "Point", "coordinates": [9.93737, 51.53275]}}, {"type": "Feature", "properties": {"variable": "Air temperature", "value": 18.6, "unit": "°C", "time": "2026-09-18 09:47:28", "sensor": "DHT22", "station": 20011, "source": "Sensor.Community"}, "geometry": {"type": "Point", "coordinates": [9.942, 51.51]}}, {"type": "Feature", "properties": {"variable": "Air temperature", "value": 22.83, "unit": "°C", "time": "2026-09-18 09:47:22", "sensor": "BME280", "station": 51425, "source": "Sensor.Community"}, "geometry": {"type": "Point", "coordinates": [9.89432, 51.4692]}}, {"type": "Feature", "properties": {"variable": "Air temperature", "value": 18.0, "unit": "°C", "time": "2026-09-18 09:47:19", "sensor": "DHT22", "station": 20538, "source": "Sensor.Community"}, "geometry": {"type": "Point", "coordinates": [9.942, 51.528]}}, {"type": "Feature", "properties": {"variable": "Air temperature", "value": 25.2, "unit": "°C", "time": "2026-09-18 09:46:26", "sensor": "BME280", "station": 89120, "source": "Sensor.Community"}, "geometry": {"type": "Point", "coordinates": [9.89429, 51.46921]}}, {"type": "Feature", "properties": {"variable": "Air temperature", "value": 19.7, "unit": "°C", "time": "2026-09-18 09:46:23", "sensor": "DHT22", "station": 93884, "source": "Sensor.Community"}, "geometry": {"type": "Point", "coordinates": [9.93636, 51.55649]}}, {"type": "Feature", "properties": {"variable": "Air temperature", "value": 29.25, "unit": "°C", "time": "2026-09-18 09:46:11", "sensor": "BME280", "station": 13745, "source": "Sensor.Community"}, "geometry": {"type": "Point", "coordinates": [9.894, 51.47]}}, {"type": "Feature", "properties": {"variable": "Air temperature", "value": 15.55, "unit": "°C", "time": "2026-09-18 09:46:09", "sensor": "BME280", "station": 10516, "source": "Sensor.Community"}, "geometry": {"type": "Point", "coordinates": [9.864, 51.518]}}, {"type": "Feature", "properties": {"variable": "Air temperature", "value": 18.66, "unit": "°C", "time": "2026-09-18 09:46:04", "sensor": "SHT30", "station": 40911, "source": "Sensor.Community"}, "geometry": {"type": "Point", "coordinates": [9.874, 51.552]}}, {"type": "Feature", "properties": {"variable": "Air temperature", "value": 19.0, "unit": "°C", "time": "2026-09-18 09:46:03", "sensor": "DHT22", "station": 62278, "source": "Sensor.Community"}, "geometry": {"type": "Point", "coordinates": [9.93024, 51.59458]}}, {"type": "Feature", "properties": {"variable": "Air temperature", "value": 17.3, "unit": "°C", "time": "2026-09-18 09:45:58", "sensor": "DHT22", "station": 32579, "source": "Sensor.Community"}, "geometry": {"type": "Point", "coordinates": [9.94944, 51.51923]}}, {"type": "Feature", "properties": {"variable": "Air temperature", "value": 16.91, "unit": "°C", "time": "2026-09-18 09:45:57", "sensor": "BME280", "station": 85243, "source": "Sensor.Community"}, "geometry": {"type": "Point", "coordinates": [9.938, 51.518]}}, {"type": "Feature", "properties": {"variable": "Air temperature", "value": 16.77, "unit": "°C", "time": "2026-09-18 09:45:51", "sensor": "BME280", "station": 39106, "source": "Sensor.Community"}, "geometry": {"type": "Point", "coordinates": [9.91308, 51.53376]}}, {"type": "Feature", "properties": {"variable": "Air temperature", "value": 16.51, "unit": "°C", "time": "2026-09-18 09:45:49", "sensor": "BME280", "station": 75461, "source": "Sensor.Community"}, "geometry": {"type": "Point", "coordinates": [9.946, 51.556]}}]}