{"type": "FeatureCollection", "name": "gottingen-air-quality.geojson", "properties": {"variable": "PM2.5", "unit": "µg/m³", "source": "Sensor.Community"}, "features": [{"type": "Feature", "properties": {"variable": "PM2.5", "value": 1.27, "unit": "µg/m³", "time": "2026-09-18 09:47:37", "sensor": "SDS011", "station": 2651, "pm10": 3.03, "source": "Sensor.Community"}, "geometry": {"type": "Point", "coordinates": [9.928, 51.594]}}, {"type": "Feature", "properties": {"variable": "PM2.5", "value": 1.2, "unit": "µg/m³", "time": "2026-09-18 09:47:36", "sensor": "SDS011", "station": 77129, "pm10": 6.18, "source": "Sensor.Community"}, "geometry": {"type": "Point", "coordinates": [9.93737, 51.53275]}}, {"type": "Feature", "properties": {"variable": "PM2.5", "value": 1.3, "unit": "µg/m³", "time": "2026-09-18 09:47:28", "sensor": "SDS011", "station": 20011, "pm10": 2.28, "source": "Sensor.Community"}, "geometry": {"type": "Point", "coordinates": [9.942, 51.51]}}, {"type": "Feature", "properties": {"variable": "PM2.5", "value": 2.3, "unit": "µg/m³", "time": "2026-09-18 09:47:20", "sensor": "SDS011", "station": 51425, "pm10": 3.38, "source": "Sensor.Community"}, "geometry": {"type": "Point", "coordinates": [9.89432, 51.4692]}}, {"type": "Feature", "properties": {"variable": "PM2.5", "value": 1.38, "unit": "µg/m³", "time": "2026-09-18 09:47:19", "sensor": "SDS011", "station": 20538, "pm10": 6.8, "source": "Sensor.Community"}, "geometry": {"type": "Point", "coordinates": [9.942, 51.528]}}, {"type": "Feature", "properties": {"variable": "PM2.5", "value": 3.1, "unit": "µg/m³", "time": "2026-09-18 09:46:25", "sensor": "SPS30", "station": 89120, "pm10": 3.1, "source": "Sensor.Community"}, "geometry": {"type": "Point", "coordinates": [9.89429, 51.46921]}}, {"type": "Feature", "properties": {"variable": "PM2.5", "value": 1.1, "unit": "µg/m³", "time": "2026-09-18 09:46:22", "sensor": "SDS011", "station": 93884, "pm10": 5.65, "source": "Sensor.Community"}, "geometry": {"type": "Point", "coordinates": [9.93636, 51.55649]}}, {"type": "Feature", "properties": {"variable": "PM2.5", "value": 1.9, "unit": "µg/m³", "time": "2026-09-18 09:46:11", "sensor": "SDS011", "station": 13745, "pm10": 3.63, "source": "Sensor.Community"}, "geometry": {"type": "Point", "coordinates": [9.894, 51.47]}}, {"type": "Feature", "properties": {"variable": "PM2.5", "value": 4.72, "unit": "µg/m³", "time": "2026-09-18 09:46:08", "sensor": "SDS011", "station": 10516, "pm10": 12.15, "source": "Sensor.Community"}, "geometry": {"type": "Point", "coordinates": [9.864, 51.518]}}, {"type": "Feature", "properties": {"variable": "PM2.5", "value": 2.03, "unit": "µg/m³", "time": "2026-09-18 09:46:04", "sensor": "SDS011", "station": 40911, "pm10": 6.07, "source": "Sensor.Community"}, "geometry": {"type": "Point", "coordinates": [9.874, 51.552]}}, {"type": "Feature", "properties": {"variable": "PM2.5", "value": 0.2, "unit": "µg/m³", "time": "2026-09-18 09:46:03", "sensor": "SDS011", "station": 62278, "pm10": 0.7, "source": "Sensor.Community"}, "geometry": {"type": "Point", "coordinates": [9.93024, 51.59458]}}, {"type": "Feature", "properties": {"variable": "PM2.5", "value": 1.77, "unit": "µg/m³", "time": "2026-09-18 09:46:00", "sensor": "SDS011", "station": 91382, "pm10": 4.38, "source": "Sensor.Community"}, "geometry": {"type": "Point", "coordinates": [9.936, 51.574]}}, {"type": "Feature", "properties": {"variable": "PM2.5", "value": 3.85, "unit": "µg/m³", "time": "2026-09-18 09:45:57", "sensor": "SDS011", "station": 32579, "pm10": 4.22, "source": "Sensor.Community"}, "geometry": {"type": "Point", "coordinates": [9.94944, 51.51923]}}, {"type": "Feature", "properties": {"variable": "PM2.5", "value": 1.6, "unit": "µg/m³", "time": "2026-09-18 09:45:57", "sensor": "SDS011", "station": 85243, "pm10": 2.63, "source": "Sensor.Community"}, "geometry": {"type": "Point", "coordinates": [9.938, 51.518]}}, {"type": "Feature", "properties": {"variable": "PM2.5", "value": 2.4, "unit": "µg/m³", "time": "2026-09-18 09:45:51", "sensor": "SDS011", "station": 39106, "pm10": 7.95, "source": "Sensor.Community"}, "geometry": {"type": "Point", "coordinates": [9.91308, 51.53376]}}, {"type": "Feature", "properties": {"variable": "PM2.5", "value": 0.0, "unit": "µg/m³", "time": "2026-09-18 09:45:49", "sensor": "SDS011", "station": 75461, "pm10": 0.0, "source": "Sensor.Community"}, "geometry": {"type": "Point", "coordinates": [9.946, 51.556]}}, {"type": "Feature", "properties": {"variable": "PM2.5", "value": 1.3, "unit": "µg/m³", "time": "2026-09-18 09:43:30", "sensor": "SDS011", "station": 40817, "pm10": 5.6, "source": "Sensor.Community"}, "geometry": {"type": "Point", "coordinates": [9.954, 51.52]}}]}